STARLINK-32572          
1 61952U 24209P   26068.51920847  .00035558  00000+0  12054-2 0  9997
2 61952  53.1599 142.9969 0001386  72.8799 287.2353 15.30241653 74873
HAWK-11B                
1 62379U 24247C   26068.44730104  .00009093  00000+0  32842-3 0  9993
2 62379  45.0161 115.7610 0004690 333.0326  27.0314 15.28847070 67738
