[{"OBJECT_NAME":"STARLINK-32572","OBJECT_ID":"2024-209P","EPOCH":"2026-03-09T12:27:39.611808","MEAN_MOTION":15.30241653,"ECCENTRICITY":0.00013865,"INCLINATION":53.1599,"RA_OF_ASC_NODE":142.9969,"ARG_OF_PERICENTER":72.8799,"MEAN_ANOMALY":287.2353,"EPHEMERIS_TYPE":0,"CLASSIFICATION_TYPE":"U","NORAD_CAT_ID":61952,"ELEMENT_SET_NO":999,"REV_AT_EPOCH":7487,"BSTAR":0.0012053773,"MEAN_MOTION_DOT":0.00035558,"MEAN_MOTION_DDOT":0},{"OBJECT_NAME":"HAWK-11B","OBJECT_ID":"2024-247C","EPOCH":"2026-03-09T10:44:06.809856","MEAN_MOTION":15.2884707,"ECCENTRICITY":0.00046902,"INCLINATION":45.0161,"RA_OF_ASC_NODE":115.761,"ARG_OF_PERICENTER":333.0326,"MEAN_ANOMALY":27.0314,"EPHEMERIS_TYPE":0,"CLASSIFICATION_TYPE":"U","NORAD_CAT_ID":62379,"ELEMENT_SET_NO":999,"REV_AT_EPOCH":6773,"BSTAR":0.00032841927,"MEAN_MOTION_DOT":9.093e-5,"MEAN_MOTION_DDOT":0}]
